ONEWEB-0054             
1 45158U 20008AD  26182.13270743  .00000131  00000+0  33987-3 0  9996
2 45158  87.8824  33.4896 0001884  84.6694 275.4648 13.10371576309858
ONEWEB-0056             
1 45159U 20008AE  26182.10368322  .00000515  00000+0  14379-2 0  9994
2 45159  87.8829  33.4885 0002076  85.4578 274.6786 13.10373786310004
ONEWEB-0057             
1 45160U 20008AF  26182.04458060  .00000396  00000+0  10982-2 0  9991
2 45160  87.8821  33.5125 0001926  69.4164 290.7170 13.10371309310164
ONEWEB-0058             
1 45161U 20008AG  26182.10774428  .00000584  00000+0  16377-2 0  9991
2 45161  87.8817  33.5051 0001682  91.7584 268.3736 13.10375833310245
ONEWEB-0059             
1 45162U 20008AH  26182.10397330  .00000488  00000+0  13613-2 0  9998
2 45162  87.8820  33.5048 0001634  76.6857 283.4452 13.10372465310148
ONEWEB-0062             
1 45163U 20008AJ  26182.12746056  .00000424  00000+0  11773-2 0  9999
2 45163  87.8823  33.4886 0001838  96.2765 263.8572 13.10370800310015
ONEWEB-0065             
1 45164U 20008AK  26182.08503134 -.00000469  00000+0 -13812-2 0  9990
2 45164  87.8827  33.5052 0001979  78.8074 281.3276 13.10376148309702
ONEWEB-0066             
1 45424U 20020A   26182.10899581 -.00000573  00000+0 -16528-2 0  9993
2 45424  87.8874  18.2989 0001645  87.5047 272.6269 13.11416152304508
ONEWEB-0067             
1 45425U 20020B   26182.07051593  .00000554  00000+0  15277-2 0  9990
2 45425  87.8899  18.2310 0001833  81.9403 278.1933 13.11425108304552
ONEWEB-0080             
1 45426U 20020C   26182.07015700  .00000514  00000+0  14134-2 0  9998
2 45426  87.8891  18.3044 0001823  97.2309 262.9027 13.11416376304523
ONEWEB-0090             
1 45427U 20020D   26182.09896888 -.00000254  00000+0 -75338-3 0  9992
2 45427  87.8886  18.3030 0001847  90.1058 270.0281 13.11415021304496
ONEWEB-0061             
1 45428U 20020E   26182.05460878  .00000035  00000+0  62971-4 0  9990
2 45428  87.8887  18.2963 0001803  88.5594 271.5740 13.11418482304445
ONEWEB-0081             
1 45429U 20020F   26182.11238705 -.00000573  00000+0 -16527-2 0  9993
2 45429  87.8881  18.2950 0001705  83.0190 277.1132 13.11415958304564
ONEWEB-0069             
1 45430U 20020G   26182.03794501  .00000509  00000+0  13995-2 0  9990
2 45430  87.8883  18.3132 0001712  84.8215 275.3108 13.11412607304488
ONEWEB-0031             
1 45431U 20020H   26182.07340603  .00000559  00000+0  15403-2 0  9996
2 45431  87.8877  18.3095 0001841  93.4779 266.6560 13.11416228304471
ONEWEB-0027             
1 45432U 20020J   26182.00559848  .00000010  00000+0 -85560-5 0  9990
2 45432  87.9134   3.1159 0002262  98.9428 261.1959 13.17651986308172
ONEWEB-0064             
1 45433U 20020K   26182.07171088  .00000522  00000+0  14379-2 0  9998
2 45433  87.8880  18.3022 0001933  92.4757 267.6592 13.11417606304505
ONEWEB-0018             
1 45434U 20020L   26182.10376527 -.00000425  00000+0 -12344-2 0  9992
2 45434  87.8879  18.2954 0001439  91.6263 268.5030 13.11414821304458
ONEWEB-0083             
1 45435U 20020M   26182.09388352 -.00000215  00000+0 -64328-3 0  9997
2 45435  87.8885  18.2915 0001814  90.9655 269.1681 13.11414367304495
ONEWEB-0095             
1 45436U 20020N   26182.00910813  .00000282  00000+0  75984-3 0  9994
2 45436  87.8886  18.3170 0002487  85.0212 275.1200 13.11414299304489
ONEWEB-0092             
1 45437U 20020P   26182.11578561 -.00000464  00000+0 -13455-2 0  9995
2 45437  87.8886  18.2871 0002006  81.2348 278.9007 13.11412635304615
ONEWEB-0085             
1 45438U 20020Q   26182.09360830 -.00000166  00000+0 -50423-3 0  9997
2 45438  87.8878  18.2975 0001835  89.0469 271.0870 13.11414913304490
ONEWEB-0096             
1 45439U 20020R   26182.09543146 -.00000088  00000+0 -28290-3 0  9991
2 45439  87.8884  18.2940 0001929  87.8597 272.2752 13.11413703304489
ONEWEB-0037             
1 45440U 20020S   26182.04719365 -.00000174  00000+0 -52413-3 0  9996
2 45440  87.8898  18.2764 0001894  86.3949 273.7395 13.11915418304519
ONEWEB-0042             
1 45441U 20020T   26182.08513749  .00000210  00000+0  55675-3 0  9991
2 45441  87.8886  18.2924 0001755  84.5587 275.5741 13.11414872304488
ONEWEB-0098             
1 45442U 20020U   26182.08102850  .00000413  00000+0  11287-2 0  9994
2 45442  87.8882  18.3023 0001816  90.9867 269.1469 13.11416735304460
ONEWEB-0055             
1 45443U 20020V   26182.05970503  .00000110  00000+0  27545-3 0  9999
2 45443  87.8889  18.3056 0001839  91.0121 269.1218 13.11418658304439
ONEWEB-0093             
1 45444U 20020W   26182.04099159 -.00000530  00000+0 -15435-2 0  9990
2 45444  87.8888  18.3026 0001637  79.1340 280.9972 13.10893496304492
ONEWEB-0029             
1 45445U 20020X   26182.06676061  .00000569  00000+0  15689-2 0  9997
2 45445  87.8877  18.3051 0001620  83.3105 276.8207 13.11416783304471
ONEWEB-0068             
1 45446U 20020Y   26182.03934852 -.00000539  00000+0 -15562-2 0  9999
2 45446  87.8887  18.3064 0001643  84.4069 275.7247 13.11416893304411
ONEWEB-0046             
1 45447U 20020Z   26182.10730209 -.00000460  00000+0 -13326-2 0  9997
2 45447  87.8877  18.2979 0001821  79.1912 280.9421 13.11416031304439
