OBJECT_NAME,OBJECT_ID,EPOCH,MEAN_MOTION,ECCENTRICITY,INCLINATION,RA_OF_ASC_NODE,ARG_OF_PERICENTER,MEAN_ANOMALY,EPHEMERIS_TYPE,CLASSIFICATION_TYPE,NORAD_CAT_ID,ELEMENT_SET_NO,REV_AT_EPOCH,BSTAR,MEAN_MOTION_DOT,MEAN_MOTION_DDOT
ONEWEB-0054,2020-008AD,2026-07-01T03:11:05.921952,13.10371576,.0001884,87.8824,33.4896,84.6694,275.4648,0,U,45158,999,30985,.33987E-3,.131E-5,0
ONEWEB-0056,2020-008AE,2026-07-01T02:29:18.230208,13.10373786,.0002076,87.8829,33.4885,85.4578,274.6786,0,U,45159,999,31000,.14379E-2,.515E-5,0
ONEWEB-0057,2020-008AF,2026-07-01T01:04:11.763840,13.10371309,.0001926,87.8821,33.5125,69.4164,290.7170,0,U,45160,999,31016,.10982E-2,.396E-5,0
ONEWEB-0058,2020-008AG,2026-07-01T02:35:09.105792,13.10375833,.0001682,87.8817,33.5051,91.7584,268.3736,0,U,45161,999,31024,.16377E-2,.584E-5,0
ONEWEB-0059,2020-008AH,2026-07-01T02:29:43.293120,13.10372465,.0001634,87.8820,33.5048,76.6857,283.4452,0,U,45162,999,31014,.13613E-2,.488E-5,0
ONEWEB-0062,2020-008AJ,2026-07-01T03:03:32.592384,13.10370800,.0001838,87.8823,33.4886,96.2765,263.8572,0,U,45163,999,31001,.11773E-2,.424E-5,0
ONEWEB-0065,2020-008AK,2026-07-01T02:02:26.707776,13.10376148,.0001979,87.8827,33.5052,78.8074,281.3276,0,U,45164,999,30970,-.13812E-2,-.469E-5,0
ONEWEB-0066,2020-020A,2026-07-01T02:36:57.237984,13.11416152,.0001645,87.8874,18.2989,87.5047,272.6269,0,U,45424,999,30450,-.16528E-2,-.573E-5,0
ONEWEB-0067,2020-020B,2026-07-01T01:41:32.576352,13.11425108,.0001833,87.8899,18.2310,81.9403,278.1933,0,U,45425,999,30455,.15277E-2,.554E-5,0
ONEWEB-0080,2020-020C,2026-07-01T01:41:01.564800,13.11416376,.0001823,87.8891,18.3044,97.2309,262.9027,0,U,45426,999,30452,.14134E-2,.514E-5,0
ONEWEB-0090,2020-020D,2026-07-01T02:22:30.911232,13.11415021,.0001847,87.8886,18.3030,90.1058,270.0281,0,U,45427,999,30449,-.75338E-3,-.254E-5,0
ONEWEB-0061,2020-020E,2026-07-01T01:18:38.198592,13.11418482,.0001803,87.8887,18.2963,88.5594,271.5740,0,U,45428,999,30444,.62971E-4,.35E-6,0
ONEWEB-0081,2020-020F,2026-07-01T02:41:50.241120,13.11415958,.0001705,87.8881,18.2950,83.0190,277.1132,0,U,45429,999,30456,-.16527E-2,-.573E-5,0
ONEWEB-0069,2020-020G,2026-07-01T00:54:38.448864,13.11412607,.0001712,87.8883,18.3132,84.8215,275.3108,0,U,45430,999,30448,.13995E-2,.509E-5,0
ONEWEB-0031,2020-020H,2026-07-01T01:45:42.280992,13.11416228,.0001841,87.8877,18.3095,93.4779,266.6560,0,U,45431,999,30447,.15403E-2,.559E-5,0
ONEWEB-0027,2020-020J,2026-07-01T00:08:03.708672,13.17651986,.0002262,87.9134,3.1159,98.9428,261.1959,0,U,45432,999,30817,-.8556E-5,.1E-6,0
ONEWEB-0064,2020-020K,2026-07-01T01:43:15.820032,13.11417606,.0001933,87.8880,18.3022,92.4757,267.6592,0,U,45433,999,30450,.14379E-2,.522E-5,0
ONEWEB-0018,2020-020L,2026-07-01T02:29:25.319328,13.11414821,.0001439,87.8879,18.2954,91.6263,268.5030,0,U,45434,999,30445,-.12344E-2,-.425E-5,0
ONEWEB-0083,2020-020M,2026-07-01T02:15:11.536128,13.11414367,.0001814,87.8885,18.2915,90.9655,269.1681,0,U,45435,999,30449,-.64328E-3,-.215E-5,0
ONEWEB-0095,2020-020N,2026-07-01T00:13:06.942432,13.11414299,.0002487,87.8886,18.3170,85.0212,275.1200,0,U,45436,999,30448,.75984E-3,.282E-5,0
ONEWEB-0092,2020-020P,2026-07-01T02:46:43.876704,13.11412635,.0002006,87.8886,18.2871,81.2348,278.9007,0,U,45437,999,30461,-.13455E-2,-.464E-5,0
ONEWEB-0085,2020-020Q,2026-07-01T02:14:47.757120,13.11414913,.0001835,87.8878,18.2975,89.0469,271.0870,0,U,45438,999,30449,-.50423E-3,-.166E-5,0
ONEWEB-0096,2020-020R,2026-07-01T02:17:25.278144,13.11413703,.0001929,87.8884,18.2940,87.8597,272.2752,0,U,45439,999,30448,-.2829E-3,-.88E-6,0
ONEWEB-0037,2020-020S,2026-07-01T01:07:57.531360,13.11915418,.0001894,87.8898,18.2764,86.3949,273.7395,0,U,45440,999,30451,-.52413E-3,-.174E-5,0
ONEWEB-0042,2020-020T,2026-07-01T02:02:35.879136,13.11414872,.0001755,87.8886,18.2924,84.5587,275.5741,0,U,45441,999,30448,.55675E-3,.21E-5,0
ONEWEB-0098,2020-020U,2026-07-01T01:56:40.862400,13.11416735,.0001816,87.8882,18.3023,90.9867,269.1469,0,U,45442,999,30446,.11287E-2,.413E-5,0
ONEWEB-0055,2020-020V,2026-07-01T01:25:58.514592,13.11418658,.0001839,87.8889,18.3056,91.0121,269.1218,0,U,45443,999,30443,.27545E-3,.11E-5,0
ONEWEB-0093,2020-020W,2026-07-01T00:59:01.673376,13.10893496,.0001637,87.8888,18.3026,79.1340,280.9972,0,U,45444,999,30449,-.15435E-2,-.53E-5,0
ONEWEB-0029,2020-020X,2026-07-01T01:36:08.116704,13.11416783,.000162,87.8877,18.3051,83.3105,276.8207,0,U,45445,999,30447,.15689E-2,.569E-5,0
ONEWEB-0068,2020-020Y,2026-07-01T00:56:39.712128,13.11416893,.0001643,87.8887,18.3064,84.4069,275.7247,0,U,45446,999,30441,-.15562E-2,-.539E-5,0
ONEWEB-0046,2020-020Z,2026-07-01T02:34:30.900576,13.11416031,.0001821,87.8877,18.2979,79.1912,280.9421,0,U,45447,999,30443,-.13326E-2,-.46E-5,0
